[{"OBJECT_NAME":"UHETSAT","OBJECT_ID":"2023-185E","EPOCH":"2026-03-09T22:39:26.455680","MEAN_MOTION":15.29797662,"ECCENTRICITY":0.00118435,"INCLINATION":97.3584,"RA_OF_ASC_NODE":137.3576,"ARG_OF_PERICENTER":307.7346,"MEAN_ANOMALY":52.2821,"EPHEMERIS_TYPE":0,"CLASSIFICATION_TYPE":"U","NORAD_CAT_ID":58466,"ELEMENT_SET_NO":999,"REV_AT_EPOCH":12611,"BSTAR":0.00030513019,"MEAN_MOTION_DOT":8.749e-5,"MEAN_MOTION_DDOT":0},{"OBJECT_NAME":"STARLINK-32480","OBJECT_ID":"2024-216H","EPOCH":"2026-03-09T21:18:41.922144","MEAN_MOTION":15.27594973,"ECCENTRICITY":0.00015091,"INCLINATION":42.9995,"RA_OF_ASC_NODE":255.4018,"ARG_OF_PERICENTER":272.9262,"MEAN_ANOMALY":87.1417,"EPHEMERIS_TYPE":0,"CLASSIFICATION_TYPE":"U","NORAD_CAT_ID":62039,"ELEMENT_SET_NO":999,"REV_AT_EPOCH":7274,"BSTAR":0.0010294265,"MEAN_MOTION_DOT":0.00028187,"MEAN_MOTION_DDOT":0}]
